     2.100          NAVIGATION                              RINEX VERSION / TYPE
fic2rin                                 01/26/2015 00:17:40 PGM / RUN BY / DATE
                                                            END OF HEADER
20 15  1 25 16  0  0.0  .282553955913D-03  .420641299570D-11  .000000000000D+00
     .610000000000D+02  .362812500000D+02  .516450083648D-08  .296776180927D+01
     .175647437572D-05  .583122414537D-02  .119358301163D-04  .515577972221D+04
     .576000000000D+05  .614672899246D-07  .117602791675D+01 -.104308128357D-06
     .926200422434D+00  .127656250000D+03  .123947906407D+01 -.821605651745D-08
     .382158775590D-10  .100000000000D+01  .182900000000D+04  .000000000000D+00
     .240000000000D+01  .000000000000D+00 -.838190317154D-08  .610000000000D+02
     .504060000000D+05  .400000000000D+01
21 15  1 25 16  0  0.0 -.409464817494D-03 -.420641299570D-11  .000000000000D+00
     .390000000000D+02 -.810000000000D+02  .519307345521D-08 -.235803731786D+01
    -.433996319771D-05  .220899399137D-01  .678561627865D-05  .515362529182D+04
     .576000000000D+05  .309199094772D-06  .185073944684D+00 -.558793544769D-08
     .933725419949D+00  .225125000000D+03 -.195637084969D+01 -.814891086342D-08
     .146434671020D-10  .100000000000D+01  .182900000000D+04  .000000000000D+00
     .240000000000D+01  .000000000000D+00 -.116415321827D-07  .390000000000D+02
     .504060000000D+05  .400000000000D+01
22 15  1 25 16  0  0.0  .311129260808D-03  .420641299570D-11  .000000000000D+00
     .300000000000D+02  .251250000000D+02  .532593613233D-08  .243583753519D+01
     .127777457237D-05  .740436720662D-02  .110454857349D-04  .515370920753D+04
     .576000000000D+05  .428408384323D-07  .123019710048D+01 -.137835741043D-06
     .922813073657D+00  .147000000000D+03 -.206966022200D+01 -.825355807954D-08
     .103932900651D-09  .100000000000D+01  .182900000000D+04  .000000000000D+00
     .240000000000D+01  .000000000000D+00 -.176951289177D-07  .300000000000D+02
     .504060000000D+05  .400000000000D+01
23 15  1 25 16  0  0.0 -.841864384711D-04 -.261479726760D-11  .000000000000D+00
     .390000000000D+02  .531562500000D+02  .517235830663D-08  .169513550703D+00
     .276975333691D-05  .973250425886D-02  .472553074360D-05  .515367016029D+04
     .576000000000D+05  .117346644402D-06  .229909660153D+01  .104308128357D-06
     .949301395471D+00  .278812500000D+03 -.271573302408D+01 -.868000441417D-08
    -.121433629627D-10  .100000000000D+01  .182900000000D+04  .000000000000D+00
     .240000000000D+01  .000000000000D+00 -.200234353542D-07  .390000000000D+02
     .504060000000D+05  .400000000000D+01
24 15  1 25 16  0  0.0 -.423560850322D-04 -.568434188608D-12  .000000000000D+00
     .600000000000D+02 -.395312500000D+02  .475412659988D-08 -.476589931701D+00
    -.219047069550D-05  .295667524915D-02  .629387795925D-05  .515368737030D+04
     .576000000000D+05  .150874257088D-06 -.295745155910D+01  .502914190292D-07
     .954980822350D+00  .255312500000D+03  .257445744083D+00 -.837570602463D-08
    -.468948104999D-09  .100000000000D+01  .182900000000D+04  .000000000000D+00
     .240000000000D+01  .000000000000D+00  .232830643654D-08  .600000000000D+02
     .504060000000D+05  .400000000000D+01
25 15  1 25 16  0  0.0  .891741365194D-06 -.261479726760D-11  .000000000000D+00
     .740000000000D+02 -.781250000000D+00  .387694720470D-08 -.249816616791D+01
     .745058059692D-08  .407352438197D-02  .999867916107D-05  .515373363113D+04
     .576000000000D+05 -.372529029846D-07 -.189739269583D+01  .372529029846D-08
     .977594334991D+00  .196968750000D+03  .659570717105D+00 -.771210695450D-08
     .212151694112D-09  .100000000000D+01  .182900000000D+04  .000000000000D+00
     .240000000000D+01  .000000000000D+00  .512227416039D-08  .740000000000D+02
     .504060000000D+05  .400000000000D+01
27 15  1 25 16  0  0.0  .468189828098D-04  .261479726760D-11  .000000000000D+00
     .960000000000D+02  .743750000000D+01  .467662337156D-08  .148653604463D+01
     .286847352982D-06  .187424593605D-02  .499188899994D-05  .515368604088D+04
     .576000000000D+05  .502914190292D-07 -.851772567746D+00  .465661287308D-07
     .966017613231D+00  .285156250000D+03  .153416592017D+00 -.834499045949D-08
     .263582407837D-09  .100000000000D+01  .182900000000D+04  .000000000000D+00
     .240000000000D+01  .000000000000D+00  .186264514923D-08  .960000000000D+02
     .504060000000D+05  .400000000000D+01
28 15  1 25 16  0  0.0  .414934009314D-03  .261479726760D-11  .000000000000D+00
     .630000000000D+02  .115000000000D+02  .354443335416D-08  .222190535018D+01
     .502914190292D-06  .197315680562D-01  .107213854790D-04  .515369311905D+04
     .576000000000D+05  .273808836937D-06 -.182802568774D+01 -.141561031342D-06
     .988131565680D+00  .181500000000D+03 -.167670681053D+01 -.737602152662D-08
     .228938107620D-09  .100000000000D+01  .182900000000D+04  .000000000000D+00
     .240000000000D+01  .000000000000D+00 -.111758708954D-07  .630000000000D+02
     .504060000000D+05  .400000000000D+01
29 15  1 25 16  0  0.0  .588116236031D-03  .227373675443D-11  .000000000000D+00
     .360000000000D+02  .359375000000D+01  .449733018900D-08 -.201702135738D+01
     .279396772385D-06  .127679959405D-02  .553391873837D-05  .515356076431D+04
     .576000000000D+05 -.353902578354D-07 -.795473505499D+00  .111758708954D-07
     .972009112721D+00  .278625000000D+03 -.868752921218D+00 -.817676916669D-08
     .333585323739D-09  .100000000000D+01  .182900000000D+04  .000000000000D+00
     .240000000000D+01  .000000000000D+00 -.977888703346D-08  .360000000000D+02
     .504060000000D+05  .400000000000D+01
30 15  1 25 16  0  0.0 -.862041488290D-04  .454747350886D-12  .000000000000D+00
     .109000000000D+03 -.380625000000D+02  .455233248006D-08 -.138426534057D+01
    -.205449759960D-05  .974736758508D-03  .770948827267D-05  .515361837387D+04
     .576000000000D+05 -.335276126862D-07 -.286767549061D+01  .428408384323D-07
     .957421847457D+00  .229000000000D+03  .307925679845D+01 -.820819904729D-08
    -.420731810883D-09  .100000000000D+01  .182900000000D+04  .000000000000D+00
     .240000000000D+01  .000000000000D+00  .325962901115D-08  .109000000000D+03
     .504060000000D+05  .400000000000D+01
31 15  1 25 16  0  0.0  .324746593833D-03 -.795807864051D-12  .000000000000D+00
     .720000000000D+02 -.343750000000D+02  .419696053454D-08 -.143266190954D+01
    -.187009572983D-05  .832166417968D-02  .761449337006D-05  .515371941948D+04
     .576000000000D+05 -.949949026108D-07 -.291149207853D+01 -.100582838058D-06
     .976640221283D+00  .244500000000D+03 -.565590224977D+00 -.810712340852D-08
    -.286440502825D-09  .100000000000D+01  .182900000000D+04  .000000000000D+00
     .240000000000D+01  .000000000000D+00 -.135041773319D-07  .720000000000D+02
     .504060000000D+05  .400000000000D+01
32 15  1 25 16  0  0.0 -.239324755967D-03  .886757334229D-11  .000000000000D+00
     .240000000000D+02  .465937500000D+02  .496163524345D-08 -.866032004772D+00
     .237673521042D-05  .113433868391D-01  .103246420622D-04  .515358681488D+04
     .576000000000D+05  .152736902237D-06  .132820161064D+01 -.182539224625D-06
     .946851762554D+00  .175875000000D+03  .107347246301D-01 -.822391398760D-08
     .216437586923D-09  .100000000000D+01  .182900000000D+04  .000000000000D+00
     .240000000000D+01  .000000000000D+00 -.372529029846D-08  .240000000000D+02
     .504060000000D+05  .400000000000D+01
13 15  1 25 15 59 44.0 -.821021385491D-04 -.352429196937D-11  .000000000000D+00
     .000000000000D+00  .504062500000D+02  .460554898246D-08 -.600436285553D+00
     .272504985332D-05  .535326148383D-02  .533275306225D-05  .515368535233D+04
     .575840000000D+05 -.428408384323D-07  .240258208203D+01 -.614672899246D-07
     .975115411528D+00  .282593750000D+03  .206862683130D+01 -.834070456668D-08
     .628597612185D-10  .100000000000D+01  .182900000000D+04  .000000000000D+00
     .240000000000D+01  .000000000000D+00 -.116415321827D-07  .000000000000D+00
     .544560000000D+05  .400000000000D+01
30 15  1 25 15 59 44.0 -.861971639097D-04  .454747350886D-12  .000000000000D+00
     .800000000000D+01 -.380625000000D+02  .455233248006D-08 -.138658701205D+01
    -.205449759960D-05  .974721275270D-03  .770948827267D-05  .515361846924D+04
     .575840000000D+05 -.335276126862D-07 -.286767535017D+01  .428408384323D-07
     .957421857698D+00  .229000000000D+03  .307924403449D+01 -.820819904729D-08
    -.420731810883D-09  .100000000000D+01  .182900000000D+04  .000000000000D+00
     .240000000000D+01  .000000000000D+00  .325962901115D-08  .800000000000D+01
     .574860000000D+05  .400000000000D+01
13 15  1 25 17 59 44.0 -.821277499199D-04 -.352429196937D-11  .000000000000D+00
     .400000000000D+01  .520000000000D+02  .466555148180D-08  .449714872864D+00
     .266917049885D-05  .535279954784D-02  .528059899807D-05  .515368445969D+04
     .647840000000D+05 -.242143869400D-07  .240252206874D+01 -.800937414169D-07
     .975115791887D+00  .285843750000D+03  .206865064760D+01 -.834463330176D-08
     .489306095849D-10  .100000000000D+01  .182900000000D+04  .000000000000D+00
     .240000000000D+01  .000000000000D+00 -.116415321827D-07  .400000000000D+01
     .576060000000D+05  .400000000000D+01
30 15  1 25 17 59 44.0 -.861934386194D-04  .454747350886D-12  .000000000000D+00
     .900000000000D+01 -.364687500000D+02  .458411951841D-08 -.336692364611D+00
    -.203773379326D-05  .974624184892D-03  .761076807976D-05  .515361790657D+04
     .647840000000D+05 -.242143869400D-07 -.286773433502D+01  .186264514923D-08
     .957418589539D+00  .231468750000D+03  .307956467102D+01 -.821748514838D-08
    -.451447376024D-09  .100000000000D+01  .182900000000D+04  .000000000000D+00
     .240000000000D+01  .000000000000D+00  .325962901115D-08  .900000000000D+01
     .576060000000D+05  .400000000000D+01
